{"fetched_at":"2026-07-11T09:24:25.354Z","source":"https://celestrak.org/NORAD/elements/gp.php?NAME=JILIN&FORMAT=JSON","constellation":"jilin-1-gaofen","records":[{"OBJECT_NAME":"JILIN-1 GAOFEN 03D51","OBJECT_ID":"2022-155B","EPOCH":"2026-07-11T03:57:18.732960","CLASSIFICATION_TYPE":"U","MEAN_MOTION":15.64552594,"ECCENTRICITY":0.0004175,"INCLINATION":97.6245,"RA_OF_ASC_NODE":338.8612,"ARG_OF_PERICENTER":247.0499,"MEAN_ANOMALY":113.0319,"EPHEMERIS_TYPE":0,"NORAD_CAT_ID":54252,"ELEMENT_SET_NO":999,"REV_AT_EPOCH":20349,"BSTAR":0.00039336,"MEAN_MOTION_DOT":0.00037894,"MEAN_MOTION_DDOT":0},{"OBJECT_NAME":"JILIN-1 GAOFEN 03D53","OBJECT_ID":"2022-155C","EPOCH":"2026-07-11T04:20:14.264160","CLASSIFICATION_TYPE":"U","MEAN_MOTION":15.54241135,"ECCENTRICITY":0.0004749,"INCLINATION":97.6236,"RA_OF_ASC_NODE":334.1475,"ARG_OF_PERICENTER":269.304,"MEAN_ANOMALY":90.7669,"EPHEMERIS_TYPE":0,"NORAD_CAT_ID":54253,"ELEMENT_SET_NO":999,"REV_AT_EPOCH":20321,"BSTAR":0.0003438,"MEAN_MOTION_DOT":0.00022355,"MEAN_MOTION_DDOT":0},{"OBJECT_NAME":"JILIN-1 GAOFEN 03D52","OBJECT_ID":"2022-155E","EPOCH":"2026-07-11T05:02:17.903616","CLASSIFICATION_TYPE":"U","MEAN_MOTION":15.61773073,"ECCENTRICITY":0.0003534,"INCLINATION":97.6218,"RA_OF_ASC_NODE":337.1403,"ARG_OF_PERICENTER":263.6829,"MEAN_ANOMALY":96.4026,"EPHEMERIS_TYPE":0,"NORAD_CAT_ID":54255,"ELEMENT_SET_NO":999,"REV_AT_EPOCH":20345,"BSTAR":0.0003996,"MEAN_MOTION_DOT":0.00034522,"MEAN_MOTION_DDOT":0},{"OBJECT_NAME":"JILIN-1 GAOFEN 03D50","OBJECT_ID":"2022-167J","EPOCH":"2026-07-11T04:29:08.655072","CLASSIFICATION_TYPE":"U","MEAN_MOTION":15.35008041,"ECCENTRICITY":0.000556,"INCLINATION":97.6845,"RA_OF_ASC_NODE":1.0215,"ARG_OF_PERICENTER":34.3971,"MEAN_ANOMALY":325.763,"EPHEMERIS_TYPE":0,"NORAD_CAT_ID":54690,"ELEMENT_SET_NO":999,"REV_AT_EPOCH":19903,"BSTAR":0.00020125,"MEAN_MOTION_DOT":0.00006751,"MEAN_MOTION_DDOT":0},{"OBJECT_NAME":"JILIN-1 GAOFEN 03D47","OBJECT_ID":"2022-167L","EPOCH":"2026-07-11T04:32:03.691968","CLASSIFICATION_TYPE":"U","MEAN_MOTION":15.34292689,"ECCENTRICITY":0.0008119,"INCLINATION":97.6942,"RA_OF_ASC_NODE":2.7609,"ARG_OF_PERICENTER":42.2874,"MEAN_ANOMALY":317.8992,"EPHEMERIS_TYPE":0,"NORAD_CAT_ID":54692,"ELEMENT_SET_NO":999,"REV_AT_EPOCH":19902,"BSTAR":0.00019661,"MEAN_MOTION_DOT":0.00006448,"MEAN_MOTION_DDOT":0},{"OBJECT_NAME":"JILIN-1 GAOFEN 03D49","OBJECT_ID":"2022-167N","EPOCH":"2026-07-11T05:08:24.687168","CLASSIFICATION_TYPE":"U","MEAN_MOTION":15.37979607,"ECCENTRICITY":0.0006297,"INCLINATION":97.6819,"RA_OF_ASC_NODE":3.4275,"ARG_OF_PERICENTER":61.1006,"MEAN_ANOMALY":299.0869,"EPHEMERIS_TYPE":0,"NORAD_CAT_ID":54694,"ELEMENT_SET_NO":999,"REV_AT_EPOCH":19918,"BSTAR":0.0002084,"MEAN_MOTION_DOT":0.00007701,"MEAN_MOTION_DDOT":0},{"OBJECT_NAME":"JILIN-1 GAOFEN 03D48","OBJECT_ID":"2022-167P","EPOCH":"2026-07-11T04:21:08.817120","CLASSIFICATION_TYPE":"U","MEAN_MOTION":15.35737586,"ECCENTRICITY":0.0006802,"INCLINATION":97.6891,"RA_OF_ASC_NODE":2.7295,"ARG_OF_PERICENTER":43.1128,"MEAN_ANOMALY":317.0646,"EPHEMERIS_TYPE":0,"NORAD_CAT_ID":54695,"ELEMENT_SET_NO":999,"REV_AT_EPOCH":19907,"BSTAR":0.00020741,"MEAN_MOTION_DOT":0.00007127,"MEAN_MOTION_DDOT":0},{"OBJECT_NAME":"JILIN GAOFEN OBJECT A","OBJECT_ID":"2026-080A","EPOCH":"2026-07-11T03:44:12.676992","CLASSIFICATION_TYPE":"U","MEAN_MOTION":15.09176094,"ECCENTRICITY":0.0011579,"INCLINATION":97.6616,"RA_OF_ASC_NODE":267.6398,"ARG_OF_PERICENTER":349.3655,"MEAN_ANOMALY":10.7327,"EPHEMERIS_TYPE":0,"NORAD_CAT_ID":68691,"ELEMENT_SET_NO":999,"REV_AT_EPOCH":1327,"BSTAR":0.00022509,"MEAN_MOTION_DOT":0.00003515,"MEAN_MOTION_DDOT":0},{"OBJECT_NAME":"JILIN GAOFEN OBJECT B","OBJECT_ID":"2026-080B","EPOCH":"2026-07-11T04:53:23.714016","CLASSIFICATION_TYPE":"U","MEAN_MOTION":15.09084467,"ECCENTRICITY":0.0015086,"INCLINATION":97.6595,"RA_OF_ASC_NODE":267.7035,"ARG_OF_PERICENTER":327.9635,"MEAN_ANOMALY":32.0675,"EPHEMERIS_TYPE":0,"NORAD_CAT_ID":68692,"ELEMENT_SET_NO":999,"REV_AT_EPOCH":1328,"BSTAR":0.00018956,"MEAN_MOTION_DOT":0.00002945,"MEAN_MOTION_DDOT":0},{"OBJECT_NAME":"JILIN GAOFEN OBJECT C","OBJECT_ID":"2026-080C","EPOCH":"2026-07-11T03:42:18.138240","CLASSIFICATION_TYPE":"U","MEAN_MOTION":15.0915985,"ECCENTRICITY":0.0012394,"INCLINATION":97.6594,"RA_OF_ASC_NODE":267.623,"ARG_OF_PERICENTER":329.6909,"MEAN_ANOMALY":30.3601,"EPHEMERIS_TYPE":0,"NORAD_CAT_ID":68693,"ELEMENT_SET_NO":999,"REV_AT_EPOCH":1327,"BSTAR":0.00022294,"MEAN_MOTION_DOT":0.0000348,"MEAN_MOTION_DDOT":0},{"OBJECT_NAME":"JILIN GAOFEN OBJECT D","OBJECT_ID":"2026-080D","EPOCH":"2026-07-11T04:54:04.366944","CLASSIFICATION_TYPE":"U","MEAN_MOTION":15.08939897,"ECCENTRICITY":0.0016762,"INCLINATION":97.6659,"RA_OF_ASC_NODE":267.7753,"ARG_OF_PERICENTER":340.0659,"MEAN_ANOMALY":19.9912,"EPHEMERIS_TYPE":0,"NORAD_CAT_ID":68694,"ELEMENT_SET_NO":999,"REV_AT_EPOCH":1326,"BSTAR":0.00017546,"MEAN_MOTION_DOT":0.00002712,"MEAN_MOTION_DDOT":0},{"OBJECT_NAME":"JILIN GAOFEN OBJECT E","OBJECT_ID":"2026-080E","EPOCH":"2026-07-11T04:28:45.799680","CLASSIFICATION_TYPE":"U","MEAN_MOTION":15.09231031,"ECCENTRICITY":0.0012797,"INCLINATION":97.6637,"RA_OF_ASC_NODE":267.7775,"ARG_OF_PERICENTER":351.8829,"MEAN_ANOMALY":8.219,"EPHEMERIS_TYPE":0,"NORAD_CAT_ID":68695,"ELEMENT_SET_NO":999,"REV_AT_EPOCH":1324,"BSTAR":0.00015554,"MEAN_MOTION_DOT":0.00002413,"MEAN_MOTION_DDOT":0},{"OBJECT_NAME":"JILIN GAOFEN OBJECT F","OBJECT_ID":"2026-080F","EPOCH":"2026-07-11T04:27:12.917088","CLASSIFICATION_TYPE":"U","MEAN_MOTION":15.09195343,"ECCENTRICITY":0.0013911,"INCLINATION":97.6608,"RA_OF_ASC_NODE":267.7465,"ARG_OF_PERICENTER":357.5456,"MEAN_ANOMALY":2.5701,"EPHEMERIS_TYPE":0,"NORAD_CAT_ID":68696,"ELEMENT_SET_NO":999,"REV_AT_EPOCH":1324,"BSTAR":0.0001565,"MEAN_MOTION_DOT":0.00002427,"MEAN_MOTION_DDOT":0},{"OBJECT_NAME":"JILIN GAOFEN OBJECT G","OBJECT_ID":"2026-080G","EPOCH":"2026-07-11T04:07:09.913728","CLASSIFICATION_TYPE":"U","MEAN_MOTION":15.09178943,"ECCENTRICITY":0.0013797,"INCLINATION":97.6652,"RA_OF_ASC_NODE":267.8145,"ARG_OF_PERICENTER":350.3527,"MEAN_ANOMALY":9.7434,"EPHEMERIS_TYPE":0,"NORAD_CAT_ID":68697,"ELEMENT_SET_NO":999,"REV_AT_EPOCH":1324,"BSTAR":0.00019812,"MEAN_MOTION_DOT":0.00003088,"MEAN_MOTION_DDOT":0},{"OBJECT_NAME":"JILIN GAOFEN OBJECT H","OBJECT_ID":"2026-080H","EPOCH":"2026-07-09T18:38:51.904896","CLASSIFICATION_TYPE":"U","MEAN_MOTION":15.09098681,"ECCENTRICITY":0.00146847,"INCLINATION":97.6641,"RA_OF_ASC_NODE":266.4127,"ARG_OF_PERICENTER":356.7299,"MEAN_ANOMALY":3.3831,"EPHEMERIS_TYPE":0,"NORAD_CAT_ID":68698,"ELEMENT_SET_NO":999,"REV_AT_EPOCH":1303,"BSTAR":0.00025188848,"MEAN_MOTION_DOT":0.00003937,"MEAN_MOTION_DDOT":0}]}
