JILIN-1 GAOFEN 03D51    
1 54252U 22155B   26192.16480015  .00037894  00000+0  39336-3 0  9995
2 54252  97.6245 338.8612 0004175 247.0499 113.0319 15.64552594203498
JILIN-1 GAOFEN 03D53    
1 54253U 22155C   26192.18072065  .00022355  00000+0  34380-3 0  9990
2 54253  97.6236 334.1475 0004749 269.3040  90.7669 15.54241135203215
JILIN-1 GAOFEN 03D52    
1 54255U 22155E   26192.20992944  .00034522  00000+0  39960-3 0  9990
2 54255  97.6218 337.1403 0003534 263.6829  96.4026 15.61773073203459
JILIN-1 GAOFEN 03D50    
1 54690U 22167J   26192.18690573  .00006751  00000+0  20125-3 0  9992
2 54690  97.6845   1.0215 0005560  34.3971 325.7630 15.35008041199032
JILIN-1 GAOFEN 03D47    
1 54692U 22167L   26192.18893162  .00006448  00000+0  19661-3 0  9999
2 54692  97.6942   2.7609 0008119  42.2874 317.8992 15.34292689199024
JILIN-1 GAOFEN 03D49    
1 54694U 22167N   26192.21417462  .00007701  00000+0  20840-3 0  9994
2 54694  97.6819   3.4275 0006297  61.1006 299.0869 15.37979607199184
JILIN-1 GAOFEN 03D48    
1 54695U 22167P   26192.18135205  .00007127  00000+0  20741-3 0  9995
2 54695  97.6891   2.7295 0006802  43.1128 317.0646 15.35737586199074
JILIN GAOFEN OBJECT A   
1 68691U 26080A   26192.15570228  .00003515  00000+0  22509-3 0  9990
2 68691  97.6616 267.6398 0011579 349.3655  10.7327 15.09176094 13271
JILIN GAOFEN OBJECT B   
1 68692U 26080B   26192.20374669  .00002945  00000+0  18956-3 0  9995
2 68692  97.6595 267.7035 0015086 327.9635  32.0675 15.09084467 13280
JILIN GAOFEN OBJECT C   
1 68693U 26080C   26192.15437660  .00003480  00000+0  22294-3 0  9996
2 68693  97.6594 267.6230 0012394 329.6909  30.3601 15.09159850 13276
JILIN GAOFEN OBJECT D   
1 68694U 26080D   26192.20421721  .00002712  00000+0  17546-3 0  9995
2 68694  97.6659 267.7753 0016762 340.0659  19.9912 15.08939897 13265
JILIN GAOFEN OBJECT E   
1 68695U 26080E   26192.18664120  .00002413  00000+0  15554-3 0  9990
2 68695  97.6637 267.7775 0012797 351.8829   8.2190 15.09231031 13242
JILIN GAOFEN OBJECT F   
1 68696U 26080F   26192.18556617  .00002427  00000+0  15650-3 0  9994
2 68696  97.6608 267.7465 0013911 357.5456   2.5701 15.09195343 13245
JILIN GAOFEN OBJECT G   
1 68697U 26080G   26192.17164252  .00003088  00000+0  19812-3 0  9992
2 68697  97.6652 267.8145 0013797 350.3527   9.7434 15.09178943 13242
JILIN GAOFEN OBJECT H   
1 68698U 26080H   26190.77698964  .00003937  00000+0  25189-3 0  9996
2 68698  97.6641 266.4127 0014684 356.7299   3.3831 15.09098681 13036
